NSS-9                   
1 33749U 09008A   25171.50927207  .00000083  00000+0  00000+0 0  9990
2 33749   0.3264  84.5778 0002136 354.1743 196.6057  1.00271403 59894
TELSTAR 11N             
1 34111U 09009A   25171.42020881 -.00000239  00000+0  00000+0 0  9992
2 34111   0.0190  19.7520 0002442  66.7197 296.1373  1.00273779 42614
WGS F2 (USA 204)        
1 34713U 09017A   25171.60736222  .00000078  00000+0  00000+0 0  9992
2 34713   0.0040 350.7952 0000504 271.5630 282.8659  1.00273982 41993
SES-7 (PROTOSTAR 2)     
1 34941U 09027A   25171.58803514 -.00000334  00000+0  00000+0 0  9998
2 34941   0.0288  53.1139 0000251 257.6430 278.2303  1.00271006 59004
MEASAT-3A               
1 35362U 09032A   25171.53463762 -.00000099  00000+0  00000+0 0  9992
2 35362   0.0191 332.0312 0002971 112.3100 177.1139  1.00271318  4403
GOES 14                 
1 35491U 09033A   25171.55252602 -.00000057  00000+0  00000+0 0  9991
2 35491   0.7440  87.9642 0002255  64.1141 207.5784  1.00272722  2969
FM-5                    
1 35493U 09034A   25171.48549071 -.00000189  00000+0  00000+0 0  9991
2 35493   0.0165 327.1470 0000471  15.7203  14.6992  1.00272099 43011
TERRESTAR-1             
1 35496U 09035A   25171.56478907 -.00000049  00000+0  00000+0 0  9998
2 35496   4.8951  48.6599 0002761  30.0336 282.6249  1.00272505 58501
ASIASAT 5               
1 35696U 09042A   25171.59219980 -.00000296  00000+0  00000+0 0  9999
2 35696   0.0398  80.4848 0001298 326.6409 175.6231  1.00271253 58080
JCSAT-12 (JCSAT-RA)     
1 35755U 09044A   25171.52882196 -.00000317  00000+0  00000+0 0  9999
2 35755   0.0195 336.7161 0000445 206.8969  47.7933  1.00270279 57982
OPTUS D3                
1 35756U 09044B   25171.53124685 -.00000135  00000+0  00000+0 0  9991
2 35756   0.8287  84.9975 0000352   3.6442 167.7396  1.00270435 57939
NIMIQ 5                 
1 35873U 09050A   25171.55956333 -.00000245  00000+0  00000+0 0  9995
2 35873   0.0125 359.3014 0002299  84.0618 314.3857  1.00272130 57717
AMAZONAS 2              
1 35942U 09054A   25171.56190911 -.00000272  00000+0  00000+0 0  9999
2 35942   0.8776  88.3349 0003228  11.6085 310.5433  1.00273402 57554
COMSATBW-1              
1 35943U 09054B   25171.51511693  .00000036  00000+0  00000+0 0  9996
2 35943   0.0218 257.7346 0001242 188.0028  71.6940  1.00269271 57677
NSS-12                  
1 36032U 09058A   25171.60736258  .00000082  00000+0  00000+0 0  9997
2 36032   0.0303  40.6884 0003744  26.1905 117.8305  1.00272454 57296
THOR 6                  
1 36033U 09058B   25171.35963007  .00000002  00000+0  00000+0 0  9996
2 36033   0.0323 125.1071 0001680 325.4604 306.8666  1.00271090 57378
INTELSAT 14 (IS-14)     
1 36097U 09064A   25171.35085514 -.00000262  00000+0  00000+0 0  9990
2 36097   0.0097 339.6390 0002350 120.9721 249.5131  1.00270994 56972
EUTELSAT 36B            
1 36101U 09065A   25171.58397672  .00000123  00000+0  00000+0 0  9998
2 36101   0.0529 347.6046 0005843 101.9033  80.2609  1.00268617 57082
INTELSAT 15 (IS-15)     
1 36106U 09067A   25171.57738090 -.00000174  00000+0  00000+0 0  9994
2 36106   0.0119  44.9725 0001986  47.7367 109.3249  1.00271982 37602
WGS F3 (USA 211)        
1 36108U 09068A   25171.57738044 -.00000182  00000+0  00000+0 0  9995
2 36108   0.2617  88.1014 0000555 146.7991 327.9968  1.00271146 42978
DIRECTV 12              
1 36131U 09075A   25171.46754236 -.00000093  00000+0  00000+0 0  9999
2 36131   0.0315 135.6562 0000779 317.9761 240.8874  1.00276780 42921
BEIDOU-2 G1             
1 36287U 10001A   25171.47688565 -.00000271  00000+0  00000+0 0  9992
2 36287   3.4473  60.7324 0002449 303.7582 216.5642  1.00269307 56542
SDO                     
1 36395U 10005A   25171.27698797 -.00000076  00000+0  00000+0 0  9995
2 36395  33.8910  91.8798 0000742  91.2729  83.3590  1.00270184 56436
INTELSAT 16 (IS-16)     
1 36397U 10006A   25171.55886830 -.00000233  00000+0  00000+0 0  9991
2 36397   0.0186 307.8417 0001962 154.3634 291.8069  1.00271899 56024
EWS-G2 (GOES 15)        
1 36411U 10008A   25171.59076009  .00000050  00000+0  00000+0 0  9999
2 36411   0.3412  85.4593 0002496 111.2895 346.2602  1.00269828 56010
ECHOSTAR 14             
1 36499U 10010A   25171.45195248  .00000012  00000+0  00000+0 0  9998
2 36499   0.0185 328.4227 0001917 130.2794 214.0061  1.00268523 42927
SES-1                   
1 36516U 10016A   25171.55391611 -.00000103  00000+0  00000+0 0  9999
2 36516   0.0300 302.6144 0002600 145.6990 279.0959  1.00269972 55409
ASTRA 3B                
1 36581U 10021A   25171.57867703  .00000148  00000+0  00000+0 0  9997
2 36581   0.5339  88.7848 0003573 353.5526  58.4971  1.00271090 55245
COMSATBW-2              
1 36582U 10021B   25171.57659190  .00000099  00000+0  00000+0 0  9992
2 36582   0.0811  77.5388 0001969  22.0220  30.2408  1.00270060 55336
BEIDOU-2 G3             
1 36590U 10024A   25171.60675814 -.00000126  00000+0  00000+0 0  9991
2 36590   3.6592  62.4370 0008014 349.5323 155.1068  1.00272726 55142
BADR-5                  
1 36592U 10025A   25171.57911142  .00000156  00000+0  00000+0 0  9999
2 36592   0.0550 122.0357 0005010 358.5125  22.9440  1.00271399 49592
COMS 1                  
1 36744U 10032A   25170.95691527 -.00000335  00000+0  00000+0 0  9999
2 36744   3.8847  79.8890 0000834  19.8185 281.3163  1.00269504 47455
ARABSAT-5A              
1 36745U 10032B   25171.29445634  .00000165  00000+0  00000+0 0  9994
2 36745   0.0574  42.9008 0005154  57.6323 304.7489  1.00275719 55015
ECHOSTAR 15             
1 36792U 10034A   25171.55495867 -.00000110  00000+0  00000+0 0  9991
2 36792   0.0131  10.3248 0002260 110.7763 251.5731  1.00112535 54693
BEIDOU-2 IGSO-1         
1 36828U 10036A   25171.59515131 -.00000039  00000+0  00000+0 0  9994
2 36828  54.2770 166.2309 0049713 218.1295 206.6399  1.00275746 54470
NILESAT 201             
1 36830U 10037A   25171.57250852 -.00000047  00000+0  00000+0 0  9991
2 36830   0.0177 245.4019 0004350 229.6675 353.0431  1.00271178 54747
RASCOM-QAF 1R           
1 36831U 10037B   25171.57459365  .00000030  00000+0  00000+0 0  9993
2 36831   0.0125  55.4296 0006452  33.1344  30.2006  1.00271923 54686
AEHF-1 (USA 214)        
1 36868U 10039A   25170.93725216  .00000156  00000+0  00000+0 0  9994
2 36868   7.3087  72.6679 0004372  11.6968 191.4240  1.00275224 50023
XM-5                    
1 37185U 10053A   25171.55113594 -.00000011  00000+0  00000+0 0  9993
2 37185   0.0391 279.7244 0000530  50.2206  22.2691  1.00268947 53857
BSAT-3B                 
1 37207U 10056B   25171.63233741 -.00000339  00000+0  00000+0 0  9990
2 37207   0.0540 237.2132 0001741 303.0081  66.3499  1.00271862 48475
BEIDOU-2 G4             
1 37210U 10057A   25171.61850968 -.00000103  00000+0  00000+0 0  9998
2 37210   2.7482  70.4594 0004671 179.1067  42.1900  1.00270732 53664
SKYTERRA 1              
1 37218U 10061A   25171.05424100 -.00000109  00000+0  00000+0 0  9990
2 37218   4.3570  50.6246 0001745  22.0238 114.0595  1.00271351 53563
HYLAS 1                 
1 37237U 10065A   25171.48948398  .00000035  00000+0  00000+0 0  9999
2 37237   4.7234  77.4861 0000874 295.5656 308.7479  1.00270694  3251
INTELSAT 17 (IS-17)     
1 37238U 10065B   25171.62389150  .00000009  00000+0  00000+0 0  9992
2 37238   0.0292  64.8922 0002506  42.1725  92.5784  1.00272194 49625
BEIDOU-2 IGSO-2         
1 37256U 10068A   25171.60831184 -.00000225  00000+0  00000+0 0  9993
2 37256  48.2008 276.3104 0047149 212.9521 105.6352  1.00288438 53168
EUTELSAT KA-SAT 9A      
1 37258U 10069A   25171.39747513  .00000073  00000+0  00000+0 0  9994
2 37258   0.0530 308.0429 0004385 179.6704 293.2350  1.00268811 40370
HISPASAT 30W-5          
1 37264U 10070A   25171.35389595 -.00000204  00000+0  00000+0 0  9998
2 37264   0.0532 108.3277 0005311   2.1355 255.7554  1.00270805 49557
KOREASAT 6              
1 37265U 10070B   25171.53463691 -.00000101  00000+0  00000+0 0  9995
2 37265   0.0158  52.8445 0001772  46.4070 162.0860  1.00271063 53141
BEIDOU-2 IGSO-3         
1 37384U 11013A   25171.44215185 -.00000199  00000+0  00000+0 0  9995
2 37384  61.8892  43.5767 0030661 176.3191 315.9327  1.00265124 52038
INTELSAT 28 (IS-28)     
1 37392U 11016A   25171.48725209 -.00000214  00000+0  00000+0 0  9992
2 37392   0.8697  87.4725 0003827 356.8504 328.3462  1.00270123 49658
YAHSAT 1A               
1 37393U 11016B   25171.60722590  .00000112  00000+0  00000+0 0  9993
2 37393   0.0208 358.4294 0002104 100.4729  81.2676  1.00270020 38780
SBIRS GEO-1 (USA 230)   
1 37481U 11019A   25171.58423737  .00000108  00000+0  00000+0 0  9997
2 37481   3.7495  52.3354 0002126  27.9508  90.8702  1.00272331 51772
TELSTAR 14R             
1 37602U 11021A   25171.40673549 -.00000268  00000+0  00000+0 0  9992
2 37602   0.0012  47.0091 0002593  16.3784 288.9035  1.00270487 52205
GSAT-8                  
1 37605U 11022A   25171.58493241  .00000095  00000+0  00000+0 0  9991
2 37605   1.1950  86.5079 0002391 189.3843 258.7890  1.00270532 49591
ST-2                    
1 37606U 11022B   25171.59148838 -.00000200  00000+0  00000+0 0  9991
2 37606   0.0175  70.1561 0001336  37.4807 102.3515  1.00270771 51658
ZHONGXING-10            
1 37677U 11026A   25171.58543591 -.00000341  00000+0  00000+0 0  9993
2 37677   0.1118  89.5342 0003572  54.0513  86.6593  1.00269740 51371
SES-3                   
1 37748U 11035A   25171.46587204 -.00000091  00000+0  00000+0 0  9990
2 37748   0.3894  86.7456 0002699 340.4424 266.4457  1.00271406 51076
KAZSAT-2                
1 37749U 11035B   25171.37698662 -.00000187  00000+0  00000+0 0  9998
2 37749   0.0388 207.0748 0000981 310.6313 333.3563  1.00270912 49779
BEIDOU-2 IGSO-4         
1 37763U 11038A   25171.60914353  .00000070  00000+0  00000+0 0  9991
2 37763  54.5794 168.9101 0144325 231.2370 183.2856  1.00276708 51027
